{"type": "FeatureCollection", "features": [ {"type": "Feature", "properties": {"norad_id": 66697, "name": "IRIDE FM3", "group": "last-30-days", "lat": -59.31596309313232, "lon": 85.14955826832656, "alt_km": 519.2647255703487, "timestamp": "2025-12-26T21:25:51.732855+00:00", "meta": {"OBJECT_NAME": "IRIDE FM3", "OBJECT_ID": "2025-276AH", "EPOCH": "2025-12-26T13:47:11.853600", "MEAN_MOTION": 15.18222041, "ECCENTRICITY": 0.00014948, "INCLINATION": 97.4382, "RA_OF_ASC_NODE": 72.1172, "ARG_OF_PERICENTER": 149.8943, "MEAN_ANOMALY": 210.2378, "EPHEMERIS_TYPE": 0, "CLASSIFICATION_TYPE": "U", "NORAD_CAT_ID": 66697, "ELEMENT_SET_NO": 999, "REV_AT_EPOCH": 422, "BSTAR": 0.00036647399, "MEAN_MOTION_DOT": 7.434e-05, "MEAN_MOTION_DDOT": 0}, "tle": {"line1": "1 66697U 25276AH  25360.57444275  .00007434  00000+0  36647-3 0  9996", "line2": "2 66697  97.4382  72.1172 0001494 149.8943 210.2378 15.18222041  4222"}}, "geometry": {"type": "Point", "coordinates": [85.14955826832656, -59.31596309313232]}}, {"type": "Feature", "properties": {"norad_id": 66698, "name": "IRIDE FM4", "group": "last-30-days", "lat": -38.175430000961505, "lon": -113.49979257595953, "alt_km": 518.2586813203225, "timestamp": "2025-12-26T21:25:51.732865+00:00", "meta": {"OBJECT_NAME": "IRIDE FM4", "OBJECT_ID": "2025-276AJ", "EPOCH": "2025-12-26T14:00:04.000032", "MEAN_MOTION": 15.17350396, "ECCENTRICITY": 0.00028837, "INCLINATION": 97.4383, "RA_OF_ASC_NODE": 72.092, "ARG_OF_PERICENTER": 234.7673, "MEAN_ANOMALY": 93.6756, "EPHEMERIS_TYPE": 0, "CLASSIFICATION_TYPE": "U", "NORAD_CAT_ID": 66698, "ELEMENT_SET_NO": 999, "REV_AT_EPOCH": 130, "BSTAR": 0.0042568726, "MEAN_MOTION_DOT": 0.00085833, "MEAN_MOTION_DDOT": 0}, "tle": {"line1": "1 66698U 25276AJ  25360.58337963  .00085833  00000+0  42569-2 0  9991", "line2": "2 66698  97.4383  72.0920 0002883 234.7673  93.6756 15.17350396  1304"}}, "geometry": {"type": "Point", "coordinates": [-113.49979257595953, -38.175430000961505]}}, {"type": "Feature", "properties": {"norad_id": 66699, "name": "IRIDE FM5", "group": "last-30-days", "lat": -39.96512719407089, "lon": -113.88530141464491, "alt_km": 518.8471617896867, "timestamp": "2025-12-26T21:25:51.732877+00:00", "meta": {"OBJECT_NAME": "IRIDE FM5", "OBJECT_ID": "2025-276AK", "EPOCH": "2025-12-26T12:33:00.445248", "MEAN_MOTION": 15.17468684, "ECCENTRICITY": 0.00031063, "INCLINATION": 97.4403, "RA_OF_ASC_NODE": 72.0389, "ARG_OF_PERICENTER": 280.927, "MEAN_ANOMALY": 79.1614, "EPHEMERIS_TYPE": 0, "CLASSIFICATION_TYPE": "U", "NORAD_CAT_ID": 66699, "ELEMENT_SET_NO": 999, "REV_AT_EPOCH": 421, "BSTAR": 0.0028355919, "MEAN_MOTION_DOT": 0.00057122, "MEAN_MOTION_DDOT": 0}, "tle": {"line1": "1 66699U 25276AK  25360.52292182  .00057122  00000+0  28356-2 0  9997", "line2": "2 66699  97.4403  72.0389 0003106 280.9270  79.1614 15.17468684  4217"}}, "geometry": {"type": "Point", "coordinates": [-113.88530141464491, -39.96512719407089]}}, {"type": "Feature", "properties": {"norad_id": 66700, "name": "IRIDE FM6", "group": "last-30-days", "lat": -55.212889702028214, "lon": 83.28876261346757, "alt_km": 519.3651598528695, "timestamp": "2025-12-26T21:25:51.732888+00:00", "meta": {"OBJECT_NAME": "IRIDE FM6", "OBJECT_ID": "2025-276AL", "EPOCH": "2025-12-26T13:46:06.210336", "MEAN_MOTION": 15.18287316, "ECCENTRICITY": 0.00021535, "INCLINATION": 97.4414, "RA_OF_ASC_NODE": 72.13, "ARG_OF_PERICENTER": 154.0391, "MEAN_ANOMALY": 206.0951, "EPHEMERIS_TYPE": 0, "CLASSIFICATION_TYPE": "U", "NORAD_CAT_ID": 66700, "ELEMENT_SET_NO": 999, "REV_AT_EPOCH": 422, "BSTAR": 0.0008321142, "MEAN_MOTION_DOT": 0.00017019, "MEAN_MOTION_DDOT": 0}, "tle": {"line1": "1 66700U 25276AL  25360.57368299  .00017019  00000+0  83211-3 0  9991", "line2": "2 66700  97.4414  72.1300 0002153 154.0391 206.0951 15.18287316  4220"}}, "geometry": {"type": "Point", "coordinates": [83.28876261346757, -55.212889702028214]}}, {"type": "Feature", "properties": {"norad_id": 66701, "name": "IRIDE FM7", "group": "last-30-days", "lat": -38.33062899440156, "lon": -113.52305693116286, "alt_km": 521.0286739517051, "timestamp": "2025-12-26T21:25:51.732898+00:00", "meta": {"OBJECT_NAME": "IRIDE FM7", "OBJECT_ID": "2025-276AM", "EPOCH": "2025-12-26T10:58:13.025280", "MEAN_MOTION": 15.16923716, "ECCENTRICITY": 0.00020908, "INCLINATION": 97.4414, "RA_OF_ASC_NODE": 71.9805, "ARG_OF_PERICENTER": 234.1172, "MEAN_ANOMALY": 125.9868, "EPHEMERIS_TYPE": 0, "CLASSIFICATION_TYPE": "U", "NORAD_CAT_ID": 66701, "ELEMENT_SET_NO": 999, "REV_AT_EPOCH": 420, "BSTAR": -0.014428525, "MEAN_MOTION_DOT": -0.00273925, "MEAN_MOTION_DDOT": 0}, "tle": {"line1": "1 66701U 25276AM  25360.45709520 -.00273925  00000+0 -14429-1 0  9990", "line2": "2 66701  97.4414  71.9805 0002090 234.1172 125.9868 15.16923716  4208"}}, "geometry": {"type": "Point", "coordinates": [-113.52305693116286, -38.33062899440156]}}, {"type": "Feature", "properties": {"norad_id": 66702, "name": "IRIDE FM8", "group": "last-30-days", "lat": -40.91188919379484, "lon": -114.10146215031574, "alt_km": 518.3340389068189, "timestamp": "2025-12-26T21:25:51.732910+00:00", "meta": {"OBJECT_NAME": "IRIDE FM8", "OBJECT_ID": "2025-276AN", "EPOCH": "2025-12-26T12:32:44.723904", "MEAN_MOTION": 15.17446179, "ECCENTRICITY": 0.0002895, "INCLINATION": 97.4392, "RA_OF_ASC_NODE": 72.0366, "ARG_OF_PERICENTER": 246.4073, "MEAN_ANOMALY": 113.6856, "EPHEMERIS_TYPE": 0, "CLASSIFICATION_TYPE": "U", "NORAD_CAT_ID": 66702, "ELEMENT_SET_NO": 999, "REV_AT_EPOCH": 421, "BSTAR": 0.00047766472, "MEAN_MOTION_DOT": 9.499e-05, "MEAN_MOTION_DDOT": 0}, "tle": {"line1": "1 66702U 25276AN  25360.52273986  .00009499  00000+0  47766-3 0  9994", "line2": "2 66702  97.4392  72.0366 0002895 246.4073 113.6856 15.17446179  4213"}}, "geometry": {"type": "Point", "coordinates": [-114.10146215031574, -40.91188919379484]}}, {"type": "Feature", "properties": {"norad_id": 66703, "name": "PELICAN-6", "group": "last-30-days", "lat": -46.77684894502408, "lon": -115.58720160756918, "alt_km": 519.8310154173532, "timestamp": "2025-12-26T21:25:51.732922+00:00", "meta": {"OBJECT_NAME": "PELICAN-6", "OBJECT_ID": "2025-276AP", "EPOCH": "2025-12-26T14:06:06.863616", "MEAN_MOTION": 15.17367418, "ECCENTRICITY": 0.00011973, "INCLINATION": 97.4401, "RA_OF_ASC_NODE": 72.1056, "ARG_OF_PERICENTER": 213.3225, "MEAN_ANOMALY": 146.7933, "EPHEMERIS_TYPE": 0, "CLASSIFICATION_TYPE": "U", "NORAD_CAT_ID": 66703, "ELEMENT_SET_NO": 999, "REV_AT_EPOCH": 422, "BSTAR": 0.00045924254, "MEAN_MOTION_DOT": 9.108e-05, "MEAN_MOTION_DDOT": 0}, "tle": {"line1": "1 66703U 25276AP  25360.58757944  .00009108  00000+0  45924-3 0  9993", "line2": "2 66703  97.4401  72.1056 0001197 213.3225 146.7933 15.17367418  4220"}}, "geometry": {"type": "Point", "coordinates": [-115.58720160756918, -46.77684894502408]}}, {"type": "Feature", "properties": {"norad_id": 66704, "name": "FLOCK 4H-1", "group": "last-30-days", "lat": -64.35795694442886, "lon": 88.22255118233939, "alt_km": 527.9042083303239, "timestamp": "2025-12-26T21:25:51.732933+00:00", "meta": {"OBJECT_NAME": "FLOCK 4H-1", "OBJECT_ID": "2025-276AQ", "EPOCH": "2025-12-26T10:38:47.389920", "MEAN_MOTION": 15.18178768, "ECCENTRICITY": 0.00163261, "INCLINATION": 97.4387, "RA_OF_ASC_NODE": 71.9864, "ARG_OF_PERICENTER": 150.9763, "MEAN_ANOMALY": 209.2383, "EPHEMERIS_TYPE": 0, "CLASSIFICATION_TYPE": "U", "NORAD_CAT_ID": 66704, "ELEMENT_SET_NO": 999, "REV_AT_EPOCH": 420, "BSTAR": -0.0013733594, "MEAN_MOTION_DOT": -0.00028105, "MEAN_MOTION_DDOT": 0}, "tle": {"line1": "1 66704U 25276AQ  25360.44360405 -.00028105  00000+0 -13734-2 0  9994", "line2": "2 66704  97.4387  71.9864 0016326 150.9763 209.2383 15.18178768  4202"}}, "geometry": {"type": "Point", "coordinates": [88.22255118233939, -64.35795694442886]}}, {"type": "Feature", "properties": {"norad_id": 66705, "name": "FLOCK 4H-2", "group": "last-30-days", "lat": -61.6587598479976, "lon": 86.43924930958796, "alt_km": 519.3915589213739, "timestamp": "2025-12-26T21:25:51.732942+00:00", "meta": {"OBJECT_NAME": "FLOCK 4H-2", "OBJECT_ID": "2025-276AR", "EPOCH": "2025-12-26T13:47:49.780608", "MEAN_MOTION": 15.18189866, "ECCENTRICITY": 0.00015584, "INCLINATION": 97.437, "RA_OF_ASC_NODE": 72.1114, "ARG_OF_PERICENTER": 152.2941, "MEAN_ANOMALY": 207.8377, "EPHEMERIS_TYPE": 0, "CLASSIFICATION_TYPE": "U", "NORAD_CAT_ID": 66705, "ELEMENT_SET_NO": 999, "REV_AT_EPOCH": 422, "BSTAR": 0.00039260197, "MEAN_MOTION_DOT": 7.962e-05, "MEAN_MOTION_DDOT": 0}, "tle": {"line1": "1 66705U 25276AR  25360.57488172  .00007962  00000+0  39260-3 0  9990", "line2": "2 66705  97.4370  72.1114 0001558 152.2941 207.8377 15.18189866  4220"}}, "geometry": {"type": "Point", "coordinates": [86.43924930958796, -61.6587598479976]}}, {"type": "Feature", "properties": {"norad_id": 66706, "name": "FLOCK 4H-3", "group": "last-30-days", "lat": -52.771714540256994, "lon": -117.48479868041672, "alt_km": 518.2580484332166, "timestamp": "2025-12-26T21:25:51.732953+00:00", "meta": {"OBJECT_NAME": "FLOCK 4H-3", "OBJECT_ID": "2025-276AS", "EPOCH": "2025-12-26T10:54:37.901376", "MEAN_MOTION": 15.17518184, "ECCENTRICITY": 0.00030536, "INCLINATION": 97.4437, "RA_OF_ASC_NODE": 71.9927, "ARG_OF_PERICENTER": 229.091, "MEAN_ANOMALY": 131.006, "EPHEMERIS_TYPE": 0, "CLASSIFICATION_TYPE": "U", "NORAD_CAT_ID": 66706, "ELEMENT_SET_NO": 999, "REV_AT_EPOCH": 420, "BSTAR": 0.00027008531, "MEAN_MOTION_DOT": 5.35e-05, "MEAN_MOTION_DDOT": 0}, "tle": {"line1": "1 66706U 25276AS  25360.45460534  .00005350  00000+0  27009-3 0  9997", "line2": "2 66706  97.4437  71.9927 0003053 229.0910 131.0060 15.17518184  4208"}}, "geometry": {"type": "Point", "coordinates": [-117.48479868041672, -52.771714540256994]}}]}